CUBEBUG-2 (LO-74)       
1 39440U 13066AA  26068.83168078  .00006310  00000+0  59321-3 0  9991
2 39440  97.8812  17.5050 0058705 358.4894   1.6138 14.92958446662163
LEMUR-2-WILSON          
1 62694U 25009CP  26068.22945558  .00004065  00000+0  38001-3 0  9994
2 62694  97.7068 148.4663 0003599  38.3481 321.7994 14.94676648 62425
