[{"OBJECT_NAME":"CUBEBUG-2 (LO-74)","OBJECT_ID":"2013-066AA","EPOCH":"2026-03-09T19:57:37.220256","MEAN_MOTION":14.92958446,"ECCENTRICITY":0.00587054,"INCLINATION":97.8812,"RA_OF_ASC_NODE":17.505,"ARG_OF_PERICENTER":358.4894,"MEAN_ANOMALY":1.6138,"EPHEMERIS_TYPE":0,"CLASSIFICATION_TYPE":"U","NORAD_CAT_ID":39440,"ELEMENT_SET_NO":999,"REV_AT_EPOCH":66216,"BSTAR":0.0005932098,"MEAN_MOTION_DOT":6.31e-5,"MEAN_MOTION_DDOT":0},{"OBJECT_NAME":"LEMUR-2-WILSON","OBJECT_ID":"2025-009CP","EPOCH":"2026-03-09T05:30:24.962112","MEAN_MOTION":14.94676648,"ECCENTRICITY":0.00035998,"INCLINATION":97.7068,"RA_OF_ASC_NODE":148.4663,"ARG_OF_PERICENTER":38.3481,"MEAN_ANOMALY":321.7994,"EPHEMERIS_TYPE":0,"CLASSIFICATION_TYPE":"U","NORAD_CAT_ID":62694,"ELEMENT_SET_NO":999,"REV_AT_EPOCH":6242,"BSTAR":0.00038001,"MEAN_MOTION_DOT":4.065e-5,"MEAN_MOTION_DDOT":0}]
